NORAD_CAT_ID,OBJECT_NAME,OBJECT_TYPE,EPOCH,MEAN_MOTION,ECCENTRICITY,INCLINATION,RA_OF_ASC_NODE,ARG_OF_PERICENTER,MEAN_ANOMALY,BSTAR,MEAN_MOTION_DOT,MEAN_MOTION_DDOT,TLE_LINE0,TLE_LINE1,TLE_LINE2,SEMIMAJOR_AXIS,PERIOD,APOGEE,PERIGEE,DECAYED
49732.0,STARLINK-3246,PAYLOAD,2023-09-15 00:36:20,15.08829844,0.0001418,53.2168,269.2681,97.7502,262.3651,-1.4999e-05,-5.27e-06,0.0,0 STARLINK-3246,1 49732U 21115J   23258.02523721 -.00000527  00000-0 -14999-4 0  9999,2 49732  53.2168 269.2681 0001418  97.7502 262.3651 15.08829844 99620,6917.911,95.438,540.757,538.795,0.0
49732.0,STARLINK-3246,PAYLOAD,2023-09-15 10:08:39,15.0883678,0.0001438,53.2167,267.4834,98.6302,261.4853,5.1584e-05,5.33e-06,0.0,0 STARLINK-3246,1 49732U 21115J   23258.42267444  .00000533  00000-0  51584-4 0  9996,2 49732  53.2167 267.4834 0001438  98.6302 261.4853 15.08836780 99686,6917.89,95.438,540.75,538.76,0.0
49732.0,STARLINK-3246,PAYLOAD,2023-09-16 06:48:39,15.08840721,0.0001455,53.2169,263.6178,99.0582,261.0575,0.00034962,5.281e-05,0.0,0 STARLINK-3246,1 49732U 21115J   23259.28379119  .00005281  00000-0  34962-3 0  9999,2 49732  53.2169 263.6178 0001455  99.0582 261.0575 15.08840721 98700,6917.878,95.438,540.75,538.737,0.0
49732.0,STARLINK-3246,PAYLOAD,2023-09-16 17:56:21,15.08847151,0.0001467,53.2157,261.5362,97.1196,262.9963,0.0003485,5.264e-05,0.0,0 STARLINK-3246,1 49732U 21115J   23259.74747471  .00005264  00000-0  34850-3 0  9997,2 49732  53.2157 261.5362 0001467  97.1196 262.9963 15.08847151 99887,6917.859,95.437,540.738,538.709,0.0
49732.0,STARLINK-3246,PAYLOAD,2023-09-17 09:50:12,15.08862904,0.0001528,53.2157,258.562,98.1789,261.9377,0.00042486,6.484e-05,0.0,0 STARLINK-3246,1 49732U 21115J   23260.40986585  .00006484  00000-0  42486-3 0  9992,2 49732  53.2157 258.5620 0001528  98.1789 261.9377 15.08862904 98876,6917.81,95.436,540.732,538.618,0.0
49732.0,STARLINK-3246,PAYLOAD,2023-09-17 22:33:17,15.08851927,0.0001252,53.2157,256.1828,102.794,257.3192,0.00011735,1.581e-05,0.0,0 STARLINK-3246,1 49732U 21115J   23260.93978533  .00001581  00000-0  11735-3 0  9990,2 49732  53.2157 256.1828 0001252 102.7940 257.3192 15.08851927100067,6917.844,95.437,540.575,538.843,0.0
49732.0,STARLINK-3246,PAYLOAD,2023-09-18 11:16:21,15.08859447,0.0001435,53.216,253.8038,96.1532,263.9624,0.0002395,3.528e-05,0.0,0 STARLINK-3246,1 49732U 21115J   23261.46969838  .00003528  00000-0  23950-3 0  9992,2 49732  53.2160 253.8038 0001435  96.1532 263.9624 15.08859447 99036,6917.821,95.436,540.679,538.693,0.0
49732.0,STARLINK-3246,PAYLOAD,2023-09-18 23:59:27,15.08843822,0.0001548,53.2173,251.4238,96.4905,263.6263,-4.9362e-05,-1.074e-05,0.0,0 STARLINK-3246,1 49732U 21115J   23261.99962104 -.00001074  00000-0 -49362-4 0  9991,2 49732  53.2173 251.4238 0001548  96.4905 263.6263 15.08843822100228,6917.869,95.437,540.805,538.663,0.0
49732.0,STARLINK-3246,PAYLOAD,2023-09-19 06:20:59,15.08855688,0.0001601,53.2167,250.2342,104.3676,255.7494,0.00019121,2.758e-05,0.0,0 STARLINK-3246,1 49732U 21115J   23262.26457496  .00002758  00000-0  19121-3 0  9992,2 49732  53.2167 250.2342 0001601 104.3676 255.7494 15.08855688100263,6917.832,95.437,540.805,538.59,0.0
49732.0,STARLINK-3246,PAYLOAD,2023-09-19 15:53:18,15.08849345,0.0001762,53.2166,248.4512,84.1608,275.9585,0.00010803,1.432e-05,0.0,0 STARLINK-3246,1 49732U 21115J   23262.66201694  .00001432  00000-0  10803-3 0  9999,2 49732  53.2166 248.4512 0001762  84.1608 275.9585 15.08849345100323,6917.852,95.437,540.936,538.498,0.0
49732.0,STARLINK-3246,PAYLOAD,2023-09-20 03:01:00,15.08828503,0.0001396,53.2165,246.3703,94.0776,266.0376,-0.00026722,-4.537e-05,0.0,0 STARLINK-3246,1 49732U 21115J   23263.12570272 -.00004537  00000-0 -26722-3 0  9990,2 49732  53.2165 246.3703 0001396  94.0776 266.0376 15.08828503100399,6917.916,95.438,540.746,538.815,0.0
49732.0,STARLINK-3246,PAYLOAD,2023-09-20 04:36:23,15.08829937,0.0001419,53.2164,246.0731,95.0308,265.0846,-0.00019949,-3.461e-05,0.0,0 STARLINK-3246,1 49732U 21115J   23263.19194309 -.00003461  00000-0 -19949-3 0  9998,2 49732  53.2164 246.0731 0001419  95.0308 265.0846 15.08829937 99293,6917.911,95.438,540.758,538.794,0.0
49732.0,STARLINK-3246,PAYLOAD,2023-09-20 22:05:39,15.08829316,0.0001466,53.2175,242.8032,90.6947,269.4213,1.2781e-05,-8.5e-07,0.0,0 STARLINK-3246,1 49732U 21115J   23263.92059054 -.00000085  00000-0  12781-4 0  9992,2 49732  53.2175 242.8032 0001466  90.6947 269.4213 15.08829316 99405,6917.913,95.438,540.792,538.764,0.0
49732.0,STARLINK-3246,PAYLOAD,2023-09-21 07:37:58,15.08831009,0.0001524,53.2171,241.02,91.8778,268.2389,0.00035515,5.367e-05,0.0,0 STARLINK-3246,1 49732U 21115J   23264.31803486  .00005367  00000-0  35515-3 0  9998,2 49732  53.2171 241.0200 0001524  91.8778 268.2389 15.08831009100573,6917.908,95.438,540.827,538.719,0.0
49732.0,STARLINK-3246,PAYLOAD,2023-09-21 15:34:53,15.08837651,0.0001506,53.217,239.5327,89.6288,270.4876,0.0004305,6.57e-05,0.0,0 STARLINK-3246,1 49732U 21115J   23264.64923510  .00006570  00000-0  43050-3 0  9995,2 49732  53.2170 239.5327 0001506  89.6288 270.4876 15.08837651 99511,6917.888,95.438,540.794,538.711,0.0
49732.0,STARLINK-3246,PAYLOAD,2023-09-21 23:31:49,15.08847619,0.0001481,53.2168,238.0458,90.5217,269.5945,0.00058212,8.991e-05,0.0,0 STARLINK-3246,1 49732U 21115J   23264.98043303  .00008991  00000-0  58212-3 0  9990,2 49732  53.2168 238.0458 0001481  90.5217 269.5945 15.08847619100673,6917.857,95.437,540.747,538.698,0.0
49732.0,STARLINK-3246,PAYLOAD,2023-09-22 07:28:44,15.08860688,0.0001489,53.2165,236.5583,89.9629,270.1534,0.00080141,0.00012497,0.0,0 STARLINK-3246,1 49732U 21115J   23265.31162845  .00012497  00000-0  80141-3 0  9993,2 49732  53.2165 236.5583 0001489  89.9629 270.1534 15.08860688 99613,6917.817,95.436,540.712,538.652,0.0
49732.0,STARLINK-3246,PAYLOAD,2023-09-22 15:25:40,15.08848939,0.0001498,53.2162,235.072,81.1754,278.9408,0.00023767,3.497e-05,0.0,0 STARLINK-3246,1 49732U 21115J   23265.64282975  .00003497  00000-0  23767-3 0  9997,2 49732  53.2162 235.0720 0001498  81.1754 278.9408 15.08848939100771,6917.853,95.437,540.754,538.682,0.0
49732.0,STARLINK-3246,PAYLOAD,2023-09-23 07:19:31,15.0885334,0.0001507,53.2154,232.0944,92.377,267.7394,0.00055581,8.572e-05,0.0,0 STARLINK-3246,1 49732U 21115J   23266.30522724  .00008572  00000-0  55581-3 0  9998,2 49732  53.2154 232.0944 0001507  92.3770 267.7394 15.08853340 99768,6917.84,95.437,540.747,538.662,0.0
49732.0,STARLINK-3246,PAYLOAD,2023-09-23 15:16:27,15.08845097,0.0001599,53.2153,230.6082,93.5673,266.5502,0.00045041,6.889e-05,0.0,0 STARLINK-3246,1 49732U 21115J   23266.63642947  .00006889  00000-0  45041-3 0  9993,2 49732  53.2153 230.6082 0001599  93.5673 266.5502 15.08845097100929,6917.865,95.437,540.836,538.624,0.0
49732.0,STARLINK-3246,PAYLOAD,2023-09-24 07:10:18,15.08850214,0.0001558,53.2157,227.6345,89.62,270.497,0.00027625,4.112e-05,0.0,0 STARLINK-3246,1 49732U 21115J   23267.29882603  .00004112  00000-0  27625-3 0  9996,2 49732  53.2157 227.6345 0001558  89.6200 270.4970 15.08850214 99914,6917.849,95.437,540.792,538.636,0.0
49732.0,STARLINK-3246,PAYLOAD,2023-09-24 21:28:46,15.08845083,0.0001532,53.2169,224.9605,105.0213,255.0949,0.0002049,2.975e-05,0.0,0 STARLINK-3246,1 49732U 21115J   23267.89498835  .00002975  00000-0  20490-3 0  9990,2 49732  53.2169 224.9605 0001532 105.0213 255.0949 15.08845083100001,6917.865,95.437,540.79,538.67,0.0
49732.0,STARLINK-3246,PAYLOAD,2023-09-25 02:14:56,15.0884531,0.0001846,53.2164,224.0657,119.7452,240.3724,0.00022653,3.319e-05,0.0,0 STARLINK-3246,1 49732U 21115J   23268.09370689  .00003319  00000-0  22653-3 0  9995,2 49732  53.2164 224.0657 0001846 119.7452 240.3724 15.08845310101146,6917.864,95.437,541.006,538.452,0.0
49732.0,STARLINK-3246,PAYLOAD,2023-09-25 03:50:19,15.08854308,0.000147,53.2159,223.7695,104.0949,256.0207,0.00038818,5.898e-05,0.0,0 STARLINK-3246,1 49732U 21115J   23268.15994526  .00005898  00000-0  38818-3 0  9998,2 49732  53.2159 223.7695 0001470 104.0949 256.0207 15.08854308100044,6917.837,95.437,540.719,538.685,0.0
49732.0,STARLINK-3246,PAYLOAD,2023-09-25 21:19:33,15.08854083,0.0001423,53.2164,220.4982,107.5403,252.5744,0.00037234,5.645e-05,0.0,0 STARLINK-3246,1 49732U 21115J   23268.88858262  .00005645  00000-0  37234-3 0  9995,2 49732  53.2164 220.4982 0001423 107.5403 252.5744 15.08854083100153,6917.837,95.437,540.687,538.718,0.0
49732.0,STARLINK-3246,PAYLOAD,2023-09-26 02:05:42,15.0885883,0.0001473,53.2162,219.6072,108.5773,251.5379,0.00054114,8.339e-05,0.0,0 STARLINK-3246,1 49732U 21115J   23269.08730038  .00008339  00000-0  54114-3 0  9997,2 49732  53.2162 219.6072 0001473 108.5773 251.5379 15.08858830101290,6917.823,95.436,540.707,538.669,0.0
49732.0,STARLINK-3246,PAYLOAD,2023-09-26 21:10:20,15.0884577,0.0001646,53.2176,216.0403,91.9898,268.1282,0.00011492,1.542e-05,0.0,0 STARLINK-3246,1 49732U 21115J   23269.88218444  .00001542  00000-0  11492-3 0  9998,2 49732  53.2176 216.0403 0001646  91.9898 268.1282 15.08845770100306,6917.863,95.437,540.866,538.589,0.0
49732.0,STARLINK-3246,PAYLOAD,2023-09-27 01:56:30,15.08834536,0.0001475,53.2166,215.1445,109.8274,250.2877,-0.00013656,-2.46e-05,0.0,0 STARLINK-3246,1 49732U 21115J   23270.08090530 -.00002460  00000-0 -13656-3 0  9992,2 49732  53.2166 215.1445 0001475 109.8274 250.2877 15.08834536101444,6917.897,95.438,540.782,538.742,0.0
49732.0,STARLINK-3246,PAYLOAD,2023-09-27 03:31:53,15.08833247,0.0001291,53.2168,214.8507,87.1277,272.9863,-0.00012519,-2.279e-05,0.0,0 STARLINK-3246,1 49732U 21115J   23270.14714902 -.00002279  00000-0 -12519-3 0  9990,2 49732  53.2168 214.8507 0001291  87.1277 272.9863 15.08833247100340,6917.901,95.438,540.659,538.873,0.0
49732.0,STARLINK-3246,PAYLOAD,2023-09-27 13:04:13,15.08826662,0.0001279,53.2161,213.0672,93.2918,266.822,-0.00015741,-2.791e-05,0.0,0 STARLINK-3246,1 49732U 21115J   23270.54459533 -.00002791  00000-0 -15741-3 0  9999,2 49732  53.2161 213.0672 0001279  93.2918 266.8220 15.08826662101515,6917.921,95.438,540.671,538.901,0.0
